INTELSAT 902 (IS-902)   
1 26900U 01039A   26185.14099701 -.00000274  00000+0  00000+0 0  9995
2 26900   6.1589  71.5754 0004288  29.8464 181.3792  1.00271305 90865
INTELSAT 904 (IS-904)   
1 27380U 02007A   26185.17261547 -.00000217  00000+0  00000+0 0  9993
2 27380   6.9595  68.9807 0006133  17.8107 226.0553  1.00270910 51932
DIRECTV 5 (TEMPO 1)     
1 27426U 02023A   26184.39558780 -.00000048  00000+0  00000+0 0  9995
2 27426   4.9166  75.1124 0003513  37.3501 201.2642  1.00271698 88287
INTELSAT 905 (IS-905)   
1 27438U 02027A   26185.76539633  .00000103  00000+0  00000+0 0  9991
2 27438   6.7946  69.5884 0003899  37.7783 313.7493  1.00272930 51530
GALAXY 3C (G-3C)        
1 27445U 02030A   26185.84503334 -.00000142  00000+0  00000+0 0  9995
2 27445   3.7755  77.7510 0001814  31.4025  23.0857  1.00271630 46675
INTELSAT 906 (IS-906)   
1 27513U 02041A   26185.89983171  .00000023  00000+0  00000+0 0  9996
2 27513   5.8464  72.7032 0004042  12.9273 225.3442  1.00271031 87206
GALAXY 13 (HORIZONS-1)  
1 27954U 03044A   26185.76279632  .00000145  00000+0  00000+0 0  9990
2 27954   1.4638  83.6382 0001718  18.0176 305.6987  1.00273255 46745
INTELSAT 10-02          
1 28358U 04022A   26185.93484535  .00000002  00000+0  00000+0 0  9997
2 28358   0.0398 258.9526 0000440 290.2142  69.3115  1.00271274 80730
DIRECTV 8               
1 28659U 05019A   26185.62636108  .00000000  00000+0  00000+0 0  9997
2 28659   0.0203  40.4002 0003210  77.7700 270.9081  1.00269914 77240
GALAXY 28 (G-28)        
1 28702U 05022A   26185.92973200 -.00000189  00000+0  00000+0 0  9999
2 28702   3.3414  78.7199 0002413  25.0359 126.7797  1.00269863 52158
GALAXY 16 (G-16)        
1 29236U 06023A   26185.91553249 -.00000114  00000+0  00000+0 0  9998
2 29236   0.0274 136.8364 0002634 327.6433  49.0325  1.00271282 73153
DIRECTV 9S              
1 29494U 06043A   26185.84373333 -.00000102  00000+0  00000+0 0  9999
2 29494   2.4634  80.6983 0005280  26.1822  18.5170  1.00271606 51561
GALAXY 17 (G-17)        
1 31307U 07016B   26185.91830583 -.00000194  00000+0  00000+0 0  9990
2 31307   3.0137  79.6852 0003895  24.9493  63.8566  1.00270177 69984
INTELSAT 11 (IS-11)     
1 32253U 07044B   26185.94454042  .00000080  00000+0  00000+0 0  9990
2 32253   3.6086  78.4607 0003653  92.4582 139.7274  0.99048601 68621
HORIZONS-2              
1 32388U 07063B   26185.92047251 -.00000242  00000+0  00000+0 0  9999
2 32388   2.6448  80.4187 0003967  10.9471  89.1267  1.00273410 67997
DIRECTV 11              
1 32729U 08013A   26185.55903523 -.00000114  00000+0  00000+0 0  9994
2 32729   0.0443 220.8853 0000568 268.0357 255.7241  1.00278328 45763
GALAXY 18 (G-18)        
1 32951U 08024A   26185.91076581  .00000038  00000+0  00000+0 0  9992
2 32951   0.0192  73.6583 0003100  38.4326  15.7023  1.00272386 46036
GALAXY 19 (G-19)        
1 33376U 08045A   26185.91587916 -.00000126  00000+0  00000+0 0  9995
2 33376   0.0455 243.5824 0002901 238.9256  33.1204  1.00271003 65089
FM-5                    
1 35493U 09034A   26183.77931601 -.00000189  00000+0  00000+0 0  9991
2 35493   0.0343 275.0250 0000963  71.7322 128.4433  1.00271535 46804
INTELSAT 14 (IS-14)     
1 36097U 09064A   26185.92617866 -.00000261  00000+0  00000+0 0  9999
2 36097   0.0131 316.0468 0002518 147.6433 107.6742  1.00272575 60781
INTELSAT 15 (IS-15)     
1 36106U 09067A   26185.95199378 -.00000172  00000+0  00000+0 0  9990
2 36106   0.0072 349.2639 0002329 121.7460 239.8166  1.00271884 41405
DIRECTV 12              
1 36131U 09075A   26183.63349326 -.00000092  00000+0  00000+0 0  9991
2 36131   0.0418 186.0830 0000293 277.3252 302.5946  1.00269592 46707
INTELSAT 16 (IS-16)     
1 36397U 10006A   26185.92003918 -.00000232  00000+0  00000+0 0  9995
2 36397   0.0096  35.4490 0002408  87.2321  55.2623  1.00271564 59831
XM-5                    
1 37185U 10053A   26183.85406361 -.00000012  00000+0  00000+0 0  9998
2 37185   0.0667 268.1133 0002415 288.6084 276.4302  1.00271810 57643
INTELSAT 17 (IS-17)     
1 37238U 10065B   26185.90044166  .00000011  00000+0  00000+0 0  9997
2 37238   0.0046  41.6905 0002556  65.7530 205.6015  1.00272127 53429
INTELSAT 28 (IS-28)     
1 37392U 11016A   26185.92886532 -.00000213  00000+0  00000+0 0  9993
2 37392   1.8491  82.4153 0003833  25.0419 118.1240  1.00271257 53460
INTELSAT 18 (IS-18)     
1 37834U 11056A   26185.89948362  .00000066  00000+0  00000+0 0  9999
2 37834   0.0214 287.8621 0001965 183.8405 315.0086  1.00271909 53985
INTELSAT 22 (IS-22)     
1 38098U 12011A   26185.94939377 -.00000046  00000+0  00000+0 0  9995
2 38098   0.0212  56.1947 0001711  44.5275 236.0982  1.00271406  7361
INTELSAT 19 (IS-19)     
1 38356U 12030A   26185.82535991 -.00000044  00000+0  00000+0 0  9992
2 38356   0.0179  33.1672 0003319  81.0339 271.7575  1.00271571 50627
INTELSAT 20 (IS-20)     
1 38740U 12043A   26185.90268457 -.00000011  00000+0  00000+0 0  9996
2 38740   0.0095  48.1941 0001203 130.2172 137.9475  1.00270899 50925
INTELSAT 21 (IS-21)     
1 38749U 12045A   26185.85231337 -.00000272  00000+0  00000+0 0  9997
2 38749   0.0200 292.6447 0001844 187.1633  51.8903  1.00271606 50706
